[{"OBJECT_NAME":"YAOGAN-30 01","OBJECT_ID":"2016-029A","EPOCH":"2026-03-09T22:16:48.722016","MEAN_MOTION":14.76274788,"ECCENTRICITY":0.00157389,"INCLINATION":97.9148,"RA_OF_ASC_NODE":120.91,"ARG_OF_PERICENTER":189.8779,"MEAN_ANOMALY":170.2124,"EPHEMERIS_TYPE":0,"CLASSIFICATION_TYPE":"U","NORAD_CAT_ID":41473,"ELEMENT_SET_NO":999,"REV_AT_EPOCH":52902,"BSTAR":0.00014079797,"MEAN_MOTION_DOT":9.27e-6,"MEAN_MOTION_DDOT":0},{"OBJECT_NAME":"DMSP 5D-2 F11 DEB","OBJECT_ID":"1991-082AN","EPOCH":"2026-03-09T12:05:34.155456","MEAN_MOTION":14.78473163,"ECCENTRICITY":0.00306385,"INCLINATION":98.5696,"RA_OF_ASC_NODE":311.9477,"ARG_OF_PERICENTER":76.3571,"MEAN_ANOMALY":44.1543,"EPHEMERIS_TYPE":0,"CLASSIFICATION_TYPE":"U","NORAD_CAT_ID":28325,"ELEMENT_SET_NO":999,"REV_AT_EPOCH":12809,"BSTAR":0.0048251966,"MEAN_MOTION_DOT":0.00035597,"MEAN_MOTION_DDOT":0}]
